ZHUHAI-1 01 (CAS-4A)    
1 42761U 17034D   23157.47501208  .00006948  00000+0  35361-3 0  9997
2 42761  43.0129 173.7618 0010843  28.1419 332.0013 15.17258186330007
MAX VALIER SAT          
1 42778U 17036P   23157.11035042  .00023727  00000+0  62768-3 0  9991
2 42778  97.1551 192.2195 0010317 134.2135 225.9960 15.38337907331026
RADFXSAT (FOX-1B)       
1 43017U 17073E   23157.41283415  .00007254  00000+0  50494-3 0  9991
2 43017  97.6317  42.1782 0235479 104.7843 257.9590 14.85923715299586
FOX-1D (AO-92)          
1 43137U 18004AC  23157.45225371  .00035147  00000+0  73650-3 0  9991
2 43137  97.3287 236.5330 0006654 167.8625 192.2785 15.45317348300653
DIWATA-2B               
1 43678U 18084H   23157.53542088  .00001601  00000+0  15819-3 0  9996
2 43678  98.0216 301.2913 0009345 188.9519 171.1535 14.93392391250674
ES'HAIL 2               
1 43700U 18090A   23157.32796672  .00000152  00000+0  00000+0 0  9998
2 43700   0.0184  12.6701 0001881  95.2609 290.4117  1.00270349 16574
FOX-1CLIFF (AO-95)      
1 43770U 18099N   23157.15026941  .00004284  00000+0  35105-3 0  9998
2 43770  97.5721 218.9887 0012532 168.3127 191.8390 14.99731384245953
ITASAT 1                
1 43786U 18099AE  23157.48379454  .00003377  00000+0  27990-3 0  9996
2 43786  97.5762 220.3458 0013515 154.6653 205.5235 14.99427398246049
JY1SAT (JO-97)          
1 43803U 18099AX  23157.44762519  .00005998  00000+0  47692-3 0  9992
2 43803  97.5692 220.2910 0014170 126.8516 233.4010 15.00716065246080
UWE-4                   
1 43880U 18111E   23157.56548023  .00005523  00000+0  42402-3 0  9995
2 43880  97.6312  62.9133 0017392 206.3705 153.6637 15.02058132242772
NEXUS (FO-99)           
1 43937U 19003F   23157.07755041  .00054429  00000+0  90792-3 0  9999
2 43937  97.0854 184.4311 0009411 320.1184  39.9377 15.51753945244325
JAISAT-1                
1 44419U 19038F   23157.50070438  .00022852  00000+0  79073-3 0  9995
2 44419  97.6734 138.8702 0013561 349.7654  10.3307 15.29805786216906
DUCHIFAT-3              
1 44854U 19089C   23157.40093791  .00006715  00000+0  45544-3 0  9996
2 44854  36.9605 155.7416 0010223 232.2726 127.7092 15.06077639191279
CAS-6 (TIANQIN 1)       
1 44881U 19093C   23157.49776435  .00000988  00000+0  12933-3 0  9995
2 44881  97.8617 236.1307 0016133 111.4694 248.8242 14.82513360187219
RS-44 & BREEZE-KM R/B   
1 44909U 19096E   23157.51144634  .00000002  00000+0 -34517-4 0  9993
2 44909  82.5219 355.0414 0216858 211.6945 147.0950 12.79720956160792
BY70-2                  
1 45857U 20042B   23157.40009449  .00016993  00000+0  17604-2 0  9992
2 45857  97.9254 237.2641 0008795  53.2066 306.9957 14.90067960157939
SALSAT                  
1 46495U 20068K   23157.36912749  .00003668  00000+0  24441-3 0  9993
2 46495  97.7701 105.2591 0016479 150.7014 209.5141 15.07636254147440
RADFXSAT-2 (AO-109)     
1 47311U 21002C   23157.39164737  .00024997  00000+0  65761-3 0  9997
2 47311  60.6811 100.0251 0014027 170.9721 189.1628 15.38434607132620
UVSQ-SAT                
1 47438U 21006AB  23157.39607324  .00014900  00000+0  61501-3 0  9996
2 47438  97.3843 214.6599 0011554 118.8767 241.3631 15.24070488131006
DIY-1 (ARDUIQUBE)       
1 47963U 21022AH  23157.22101932  .00228069  00000+0  30168-2 0  9990
2 47963  97.4962  65.2535 0003927  58.8814 301.2826 15.57537801120882
XW-3 (CAS-9)            
1 50466U 21131B   23157.53061977  .00000546  00000+0  19172-3 0  9992
2 50466  98.5518 239.1085 0004783 157.5784 202.5613 14.38908319 75823
TEVEL-3                 
1 50988U 22002E   23157.54863074  .00017975  00000+0  72849-3 0  9992
2 50988  97.4332 224.5891 0006334 264.9480  95.1034 15.24689786 77147
TEVEL-8                 
1 50989U 22002F   23157.43565458  .00018252  00000+0  74115-3 0  9993
2 50989  97.4349 224.5350 0006320 264.1108  95.9409 15.24620836 77123
TEVEL-5                 
1 50998U 22002Q   23157.43334178  .00017907  00000+0  70845-3 0  9998
2 50998  97.4327 224.8456 0007546 259.5074 100.5314 15.25491841 77154
TEVEL-6                 
1 50999U 22002R   23157.43186507  .00018994  00000+0  75111-3 0  9998
2 50999  97.4325 224.8390 0007558 259.3805 100.6582 15.25493367 77156
TEVEL-1                 
1 51013U 22002AF  23157.49248209  .00017197  00000+0  69816-3 0  9999
2 51013  97.4327 224.4779 0006248 264.5074  95.5451 15.24641521 77135
TEVEL-7                 
1 51062U 22002CG  23157.43677502  .00017671  00000+0  71737-3 0  9991
2 51062  97.4345 224.5096 0006306 263.5651  96.4869 15.24636728 77122
TEVEL-4                 
1 51063U 22002CH  23157.44249361  .00017674  00000+0  71856-3 0  9996
2 51063  97.4346 224.4998 0006287 263.6360  96.4162 15.24586731 77124
TEVEL-2                 
1 51069U 22002CP  23157.55047431  .00018041  00000+0  73109-3 0  9990
2 51069  97.4329 224.5628 0006310 264.6474  95.4044 15.24691628 77148
GREENCUBE               
1 53106U 22080B   23156.84588440 -.00000003  00000+0  00000+0 0  9997
2 53106  70.1624 323.6621 0008403 187.6285 172.4247  6.42557080 21021
RS29S (SXC3-2110 CYCLO*)
1 53373U 22096D   23157.53753027  .00027946  00000+0  73981-3 0  9998
2 53373  97.4145  63.7157 0002757 113.6089 246.5445 15.38337907 46052
RS32S (SXC3-212 MONITO*)
1 53374U 22096E   23157.56596393  .00026761  00000+0  72746-3 0  9995
2 53374  97.4126  63.6394 0003115 120.6032 239.5520 15.37525886 46059
RS34S (SXC3-218 KUZBAS*)
1 53375U 22096F   23157.57386884  .00022500  00000+0  64986-3 0  9993
2 53375  97.4151  63.3658 0003048 117.8936 242.2616 15.35667913 46035
RS23S (SXC3-21 UTMN)    
1 53376U 22096G   23157.53483735  .00023089  00000+0  65594-3 0  9992
2 53376  97.4145  63.4114 0002829 114.2469 245.9071 15.36181910 46039
RS28S (SXC3-214 MIET-A*)
1 53377U 22096H   23157.58085000  .00018221  00000+0  53345-3 0  9994
2 53377  97.4158  63.3630 0002962 118.1694 241.9848 15.35285697 46031
RS26S (KAI-1)           
1 53378U 22096J   23157.54473506  .00017556  00000+0  53706-3 0  9994
2 53378  97.4172  63.1200 0002938 115.2117 244.9430 15.33903661 46014
RS19S (SXC3-219 ISOI)   
1 53381U 22096M   23157.53417819  .00021449  00000+0  61141-3 0  9990
2 53381  97.4146  63.5604 0005675  97.8641 262.3247 15.36079609 46041
RS21S (CUBESX-HSE-2)    
1 53383U 22096P   23157.57507213  .00022614  00000+0  63581-3 0  9999
2 53383  97.4150  63.6691 0006168  98.1906 262.0037 15.36496008 46052
RS30S (SXC3-217 SIREN)  
1 53384U 22096Q   23157.53134782  .00019309  00000+0  56919-3 0  9997
2 53384  97.4163  63.4344 0006124  95.3836 264.8106 15.35044475 46034
RS20S (GEOSCAN-EDELVEIS)
1 53385U 22096R   23157.57970893  .00030731  00000+0  77301-3 0  9993
2 53385  97.4141  64.2519 0006462  96.7335 263.4646 15.39870426 46129
RS33S (SXC3-215 VIZARD) 
1 53386U 22096S   23157.58388352  .00041741  00000+0  93369-3 0  9993
2 53386  97.4137  64.8528 0007134  96.5092 263.6968 15.43343601 46153
CAS-5A (FO-118)         
1 54684U 22167C   23157.50087310  .00009995  00000+0  55591-3 0  9996
2 54684  97.5620 295.1540 0013473  17.9638 342.2067 15.13792568 27062
